UME (ISS)               
1 08709U 76019A   24316.83793826  .00000114  00000+0  18340-3 0  9993
2 08709  69.6736 269.8264 0014142 268.5100 110.2577 13.71659699437502
UME-2 (ISS-B)           
1 10674U 78018A   24317.10577852  .00000016  00000+0  10598-3 0  9996
2 10674  69.3637 344.9656 0163069  15.8379 353.6950 13.43682177292746
ISS (ZARYA)             
1 25544U 98067A   24317.24127085  .00019805  00000+0  33684-3 0  9995
2 25544  51.6380 301.8966 0008444 165.9795 194.1431 15.51387213481518
SWISSCUBE               
1 35932U 09051B   24316.62581922  .00004669  00000+0  97853-3 0  9997
2 35932  98.4493 202.8074 0005964 215.3126 144.7679 14.60186586804104
AISSAT 1                
1 36797U 10035C   24316.69523477  .00007560  00000+0  73237-3 0  9992
2 36797  98.1614 183.6983 0009559 174.3520 185.7808 14.92987865777299
AISSAT 2                
1 40075U 14037G   24317.07927810  .00008035  00000+0  86198-3 0  9992
2 40075  98.3379 243.7136 0005680  20.4229 339.7213 14.88892621560054
ISS (NAUKA)             
1 49044U 21066A   24316.48771076  .00024968  00000+0  42272-3 0  9990
2 49044  51.6402 305.6348 0008447 163.4144 305.3407 15.51363037186603
OUTPOST MISSION 1       
1 56226U 23084BK  24316.29826508  .00038558  00000+0  13191-2 0  9999
2 56226  97.5546  76.8701 0006982 211.0347 149.0482 15.30126418 78599
OUTPOST MISSION 2       
1 58334U 23174CG  24317.12526985  .00025497  00000+0  98264-3 0  9993
2 58334  97.4485  30.9446 0011170  53.8178 306.4092 15.26259156 56232
